{"type": "FeatureCollection", "features": [ {"type": "Feature", "properties": {"norad_id": 43107, "name": "BEIDOU-3 M7 (C27)", "group": "gnss", "lat": -30.822259260112375, "lon": 153.66102334841392, "alt_km": 21539.127163597608, "timestamp": "2025-12-21T22:41:41.703983+00:00", "meta": {"OBJECT_NAME": "BEIDOU-3 M7 (C27)", "OBJECT_ID": "2018-003A", "EPOCH": "2025-12-21T14:51:30.928608", "MEAN_MOTION": 1.86232633, "ECCENTRICITY": 0.0002983, "INCLINATION": 54.4889, "RA_OF_ASC_NODE": 308.5062, "ARG_OF_PERICENTER": 66.7112, "MEAN_ANOMALY": 293.3168, "EPHEMERIS_TYPE": 0, "CLASSIFICATION_TYPE": "U", "NORAD_CAT_ID": 43107, "ELEMENT_SET_NO": 999, "REV_AT_EPOCH": 5404, "BSTAR": 0, "MEAN_MOTION_DOT": -6.2e-07, "MEAN_MOTION_DDOT": 0}, "tle": {"line1": "1 43107U 18003A   25355.61910797 -.00000062  00000+0  00000+0 0  9994", "line2": "2 43107  54.4889 308.5062 0002983  66.7112 293.3168  1.86232633 54043"}}, "geometry": {"type": "Point", "coordinates": [153.66102334841392, -30.822259260112375]}}, {"type": "Feature", "properties": {"norad_id": 43108, "name": "BEIDOU-3 M8 (C28)", "group": "gnss", "lat": -52.094954426395404, "lon": -165.14366263039386, "alt_km": 21521.848659384657, "timestamp": "2025-12-21T22:41:41.703994+00:00", "meta": {"OBJECT_NAME": "BEIDOU-3 M8 (C28)", "OBJECT_ID": "2018-003B", "EPOCH": "2025-12-21T00:39:03.607776", "MEAN_MOTION": 1.86231132, "ECCENTRICITY": 0.00046009, "INCLINATION": 54.4823, "RA_OF_ASC_NODE": 308.5094, "ARG_OF_PERICENTER": 278.1656, "MEAN_ANOMALY": 81.7767, "EPHEMERIS_TYPE": 0, "CLASSIFICATION_TYPE": "U", "NORAD_CAT_ID": 43108, "ELEMENT_SET_NO": 999, "REV_AT_EPOCH": 5404, "BSTAR": 0, "MEAN_MOTION_DOT": -6.6e-07, "MEAN_MOTION_DDOT": 0}, "tle": {"line1": "1 43108U 18003B   25355.02712509 -.00000066  00000+0  00000+0 0  9995", "line2": "2 43108  54.4823 308.5094 0004600 278.1656  81.7767  1.86231132 54044"}}, "geometry": {"type": "Point", "coordinates": [-165.14366263039386, -52.094954426395404]}}, {"type": "Feature", "properties": {"norad_id": 43207, "name": "BEIDOU-3 M4 (C22)", "group": "gnss", "lat": -32.848775729109605, "lon": 43.73414462058684, "alt_km": 21523.805765335448, "timestamp": "2025-12-21T22:41:41.704007+00:00", "meta": {"OBJECT_NAME": "BEIDOU-3 M4 (C22)", "OBJECT_ID": "2018-018A", "EPOCH": "2025-12-20T09:29:07.105632", "MEAN_MOTION": 1.86231247, "ECCENTRICITY": 0.0004167, "INCLINATION": 56.4917, "RA_OF_ASC_NODE": 69.0512, "ARG_OF_PERICENTER": 3.4046, "MEAN_ANOMALY": 356.639, "EPHEMERIS_TYPE": 0, "CLASSIFICATION_TYPE": "U", "NORAD_CAT_ID": 43207, "ELEMENT_SET_NO": 999, "REV_AT_EPOCH": 5341, "BSTAR": 0, "MEAN_MOTION_DOT": -4.3e-07, "MEAN_MOTION_DDOT": 0}, "tle": {"line1": "1 43207U 18018A   25354.39522113 -.00000043  00000+0  00000+0 0  9995", "line2": "2 43207  56.4917  69.0512 0004167   3.4046 356.6390  1.86231247 53417"}}, "geometry": {"type": "Point", "coordinates": [43.73414462058684, -32.848775729109605]}}, {"type": "Feature", "properties": {"norad_id": 43208, "name": "BEIDOU-3 M3 (C21)", "group": "gnss", "lat": -56.2141333512136, "lon": -12.357089295056985, "alt_km": 21518.83748957126, "timestamp": "2025-12-21T22:41:41.704018+00:00", "meta": {"OBJECT_NAME": "BEIDOU-3 M3 (C21)", "OBJECT_ID": "2018-018B", "EPOCH": "2025-12-21T12:51:19.783296", "MEAN_MOTION": 1.86231409, "ECCENTRICITY": 0.00070153, "INCLINATION": 56.4924, "RA_OF_ASC_NODE": 69.0175, "ARG_OF_PERICENTER": 313.8809, "MEAN_ANOMALY": 46.108, "EPHEMERIS_TYPE": 0, "CLASSIFICATION_TYPE": "U", "NORAD_CAT_ID": 43208, "ELEMENT_SET_NO": 999, "REV_AT_EPOCH": 5343, "BSTAR": 0, "MEAN_MOTION_DOT": -3.4e-07, "MEAN_MOTION_DDOT": 0}, "tle": {"line1": "1 43208U 18018B   25355.53564564 -.00000034  00000+0  00000+0 0  9999", "line2": "2 43208  56.4924  69.0175 0007015 313.8809  46.1080  1.86231409 53430"}}, "geometry": {"type": "Point", "coordinates": [-12.357089295056985, -56.2141333512136]}}, {"type": "Feature", "properties": {"norad_id": 43245, "name": "BEIDOU-3 M9 (C29)", "group": "gnss", "lat": 38.57900339894758, "lon": 91.25418237545269, "alt_km": 21527.600886013155, "timestamp": "2025-12-21T22:41:41.704029+00:00", "meta": {"OBJECT_NAME": "BEIDOU-3 M9 (C29)", "OBJECT_ID": "2018-029A", "EPOCH": "2025-12-21T05:09:30.864384", "MEAN_MOTION": 1.86228362, "ECCENTRICITY": 0.00015118, "INCLINATION": 54.3581, "RA_OF_ASC_NODE": 306.1726, "ARG_OF_PERICENTER": 290.8288, "MEAN_ANOMALY": 69.1519, "EPHEMERIS_TYPE": 0, "CLASSIFICATION_TYPE": "U", "NORAD_CAT_ID": 43245, "ELEMENT_SET_NO": 999, "REV_AT_EPOCH": 5258, "BSTAR": 0, "MEAN_MOTION_DOT": -6.2e-07, "MEAN_MOTION_DDOT": 0}, "tle": {"line1": "1 43245U 18029A   25355.21494056 -.00000062  00000+0  00000+0 0  9996", "line2": "2 43245  54.3581 306.1726 0001511 290.8288  69.1519  1.86228362 52585"}}, "geometry": {"type": "Point", "coordinates": [91.25418237545269, 38.57900339894758]}}, {"type": "Feature", "properties": {"norad_id": 43246, "name": "BEIDOU-3 M10 (C30)", "group": "gnss", "lat": 5.381960105141476, "lon": 122.27939796211277, "alt_km": 21539.519481109895, "timestamp": "2025-12-21T22:41:41.704040+00:00", "meta": {"OBJECT_NAME": "BEIDOU-3 M10 (C30)", "OBJECT_ID": "2018-029B", "EPOCH": "2025-12-21T03:36:13.499136", "MEAN_MOTION": 1.86229222, "ECCENTRICITY": 0.00042718, "INCLINATION": 54.3551, "RA_OF_ASC_NODE": 306.2014, "ARG_OF_PERICENTER": 3.3786, "MEAN_ANOMALY": 356.6208, "EPHEMERIS_TYPE": 0, "CLASSIFICATION_TYPE": "U", "NORAD_CAT_ID": 43246, "ELEMENT_SET_NO": 999, "REV_AT_EPOCH": 5256, "BSTAR": 0, "MEAN_MOTION_DOT": -6.3e-07, "MEAN_MOTION_DDOT": 0}, "tle": {"line1": "1 43246U 18029B   25355.15015624 -.00000063  00000+0  00000+0 0  9991", "line2": "2 43246  54.3551 306.2014 0004271   3.3786 356.6208  1.86229222 52563"}}, "geometry": {"type": "Point", "coordinates": [122.27939796211277, 5.381960105141476]}}, {"type": "Feature", "properties": {"norad_id": 43286, "name": "IRNSS-1I", "group": "gnss", "lat": 21.626163128254124, "lon": 122.13572475512207, "alt_km": 35850.86809167846, "timestamp": "2025-12-21T22:41:41.704052+00:00", "meta": {"OBJECT_NAME": "IRNSS-1I", "OBJECT_ID": "2018-035A", "EPOCH": "2025-12-20T19:47:21.482880", "MEAN_MOTION": 1.00273791, "ECCENTRICITY": 0.0021634, "INCLINATION": 29.167, "RA_OF_ASC_NODE": 76.974, "ARG_OF_PERICENTER": 186.9634, "MEAN_ANOMALY": 177.5378, "EPHEMERIS_TYPE": 0, "CLASSIFICATION_TYPE": "U", "NORAD_CAT_ID": 43286, "ELEMENT_SET_NO": 999, "REV_AT_EPOCH": 2829, "BSTAR": 0, "MEAN_MOTION_DOT": 8.3e-07, "MEAN_MOTION_DDOT": 0}, "tle": {"line1": "1 43286U 18035A   25354.82455420  .00000083  00000+0  00000+0 0  9998", "line2": "2 43286  29.1670  76.9740 0021634 186.9634 177.5378  1.00273791 28295"}}, "geometry": {"type": "Point", "coordinates": [122.13572475512207, 21.626163128254124]}}, {"type": "Feature", "properties": {"norad_id": 43508, "name": "COSMOS 2527 (756)", "group": "gnss", "lat": -4.845274326010906, "lon": -97.94905854832008, "alt_km": 19114.14978794878, "timestamp": "2025-12-21T22:41:41.704063+00:00", "meta": {"OBJECT_NAME": "COSMOS 2527 (756)", "OBJECT_ID": "2018-053A", "EPOCH": "2025-12-20T18:22:11.791200", "MEAN_MOTION": 2.13102375, "ECCENTRICITY": 0.00088721, "INCLINATION": 65.4768, "RA_OF_ASC_NODE": 79.8631, "ARG_OF_PERICENTER": 227.1028, "MEAN_ANOMALY": 132.8569, "EPHEMERIS_TYPE": 0, "CLASSIFICATION_TYPE": "U", "NORAD_CAT_ID": 43508, "ELEMENT_SET_NO": 999, "REV_AT_EPOCH": 5847, "BSTAR": 0, "MEAN_MOTION_DOT": -1.4e-07, "MEAN_MOTION_DDOT": 0}, "tle": {"line1": "1 43508U 18053A   25354.76541425 -.00000014  00000+0  00000+0 0  9994", "line2": "2 43508  65.4768  79.8631 0008872 227.1028 132.8569  2.13102375 58471"}}, "geometry": {"type": "Point", "coordinates": [-97.94905854832008, -4.845274326010906]}}, {"type": "Feature", "properties": {"norad_id": 43539, "name": "BEIDOU-2 IGSO-7 (C16)", "group": "gnss", "lat": 14.361011411467077, "lon": 174.85703184637717, "alt_km": 36097.603497863936, "timestamp": "2025-12-21T22:41:41.704075+00:00", "meta": {"OBJECT_NAME": "BEIDOU-2 IGSO-7 (C16)", "OBJECT_ID": "2018-057A", "EPOCH": "2025-12-15T07:47:07.120608", "MEAN_MOTION": 1.00256546, "ECCENTRICITY": 0.00926218, "INCLINATION": 55.1766, "RA_OF_ASC_NODE": 164.6485, "ARG_OF_PERICENTER": 235.2644, "MEAN_ANOMALY": 271.8458, "EPHEMERIS_TYPE": 0, "CLASSIFICATION_TYPE": "U", "NORAD_CAT_ID": 43539, "ELEMENT_SET_NO": 999, "REV_AT_EPOCH": 2728, "BSTAR": 0, "MEAN_MOTION_DOT": -2.3e-07, "MEAN_MOTION_DDOT": 0}, "tle": {"line1": "1 43539U 18057A   25349.32438797 -.00000023  00000+0  00000+0 0  9995", "line2": "2 43539  55.1766 164.6485 0092621 235.2644 271.8458  1.00256546 27289"}}, "geometry": {"type": "Point", "coordinates": [174.85703184637717, 14.361011411467077]}}, {"type": "Feature", "properties": {"norad_id": 43564, "name": "GSAT0221 (GALILEO 25)", "group": "gnss", "lat": 15.151747649145134, "lon": -3.394093855251285, "alt_km": 23221.111945463887, "timestamp": "2025-12-21T22:41:41.704091+00:00", "meta": {"OBJECT_NAME": "GSAT0221 (GALILEO 25)", "OBJECT_ID": "2018-060A", "EPOCH": "2025-12-19T13:40:28.820064", "MEAN_MOTION": 1.70475889, "ECCENTRICITY": 0.0006721, "INCLINATION": 57.2264, "RA_OF_ASC_NODE": 346.6332, "ARG_OF_PERICENTER": 285.6827, "MEAN_ANOMALY": 74.2548, "EPHEMERIS_TYPE": 0, "CLASSIFICATION_TYPE": "U", "NORAD_CAT_ID": 43564, "ELEMENT_SET_NO": 999, "REV_AT_EPOCH": 4610, "BSTAR": 0, "MEAN_MOTION_DOT": -7.2e-07, "MEAN_MOTION_DDOT": 0}, "tle": {"line1": "1 43564U 18060A   25353.56977801 -.00000072  00000+0  00000+0 0  9996", "line2": "2 43564  57.2264 346.6332 0006721 285.6827  74.2548  1.70475889 46101"}}, "geometry": {"type": "Point", "coordinates": [-3.394093855251285, 15.151747649145134]}}]}